{
  "type": "FeatureCollection",
  "name": "projects",
  "features": [
    {
      "type": "Feature",
      "geometry": {
        "type": "Point",
        "coordinates": [
          33.657968,
          -117.7361601
        ]
      },
      "properties": {
        "type": "Project",
        "status": "Leads",
        "name": "Irvine - Barranca Business Park",
        "recordId": "rec6Y7WUkyqN5SEzg",
        "recordUrl": "https://airtable.com/appMPJF8EIQfpWaWO/appQRfMtLTVVs4fNJ/tblLkMjyoGXeqsSMD/rec6Y7WUkyqN5SEzg",
        "navLat": 33.6577279,
        "navLon": -117.736451
      }
    },
    {
      "type": "Feature",
      "geometry": {
        "type": "Point",
        "coordinates": [
          33.657968,
          -117.7361601
        ]
      },
      "properties": {
        "type": "Project",
        "status": "Leads",
        "name": "Irvine - Barranca Business Park",
        "recordId": "recTHAGezNy6C5Iwv",
        "recordUrl": "https://airtable.com/appMPJF8EIQfpWaWO/appQRfMtLTVVs4fNJ/tblLkMjyoGXeqsSMD/recTHAGezNy6C5Iwv",
        "navLat": 33.6577279,
        "navLon": -117.736451
      }
    },
    {
      "type": "Feature",
      "geometry": {
        "type": "Point",
        "coordinates": [
          33.657968,
          -117.7361601
        ]
      },
      "properties": {
        "type": "Project",
        "status": "Leads",
        "name": "Irvine - Barranca Business Park",
        "recordId": "recpOYYSfxWD8f6Gj",
        "recordUrl": "https://airtable.com/appMPJF8EIQfpWaWO/appQRfMtLTVVs4fNJ/tblLkMjyoGXeqsSMD/recpOYYSfxWD8f6Gj",
        "navLat": 33.6577279,
        "navLon": -117.736451
      }
    },
    {
      "type": "Feature",
      "geometry": {
        "type": "Point",
        "coordinates": [
          -81.431594,
          28.5052254
        ]
      },
      "properties": {
        "type": "Project",
        "status": "Leads",
        "name": "Orlando - 34th & Val Business Center",
        "recordId": "recEtgFynrB1vP1um",
        "recordUrl": "https://airtable.com/appMPJF8EIQfpWaWO/appQRfMtLTVVs4fNJ/tblLkMjyoGXeqsSMD/recEtgFynrB1vP1um",
        "navLat": 28.5048233,
        "navLon": -81.43165549999999
      }
    },
    {
      "type": "Feature",
      "geometry": {
        "type": "Point",
        "coordinates": [
          -81.4304159,
          28.5028427
        ]
      },
      "properties": {
        "type": "Project",
        "status": "Leads",
        "name": "Orlando - Vineland Business Center",
        "recordId": "reccjeBxOKtbdQvkI",
        "recordUrl": "https://airtable.com/appMPJF8EIQfpWaWO/appQRfMtLTVVs4fNJ/tblLkMjyoGXeqsSMD/reccjeBxOKtbdQvkI",
        "navLat": 28.5026776,
        "navLon": -81.4305437
      }
    },
    {
      "type": "Feature",
      "geometry": {
        "type": "Point",
        "coordinates": [
          -117.23456,
          32.98765
        ]
      },
      "properties": {
        "type": "Project",
        "status": "Leads",
        "name": "Sample Business Park",
        "recordId": "rec123abc",
        "recordUrl": "https://airtable.com/rec123abc",
        "lat": 32.98765,
        "lon": -117.23456
      }
    },
    {
      "type": "Feature",
      "geometry": {
        "type": "Point",
        "coordinates": [
          -117.2240223,
          33.1067983
        ]
      },
      "properties": {
        "type": "Project",
        "status": "Leads",
        "name": "San Marcos - La Costa Meadows Business Center",
        "recordId": "recUknMFPTBMD5ApN",
        "recordUrl": "https://airtable.com/appMPJF8EIQfpWaWO/appQRfMtLTVVs4fNJ/tblLkMjyoGXeqsSMD/recUknMFPTBMD5ApN",
        "navLat": 33.1068181,
        "navLon": -117.2240198
      }
    }
  ]
}